start=new Date('2022-09-23T00:00:00.000Z').valueOf();
sats=[{"EPHEMERIS_TYPE":"0","MEAN_ELEMENT_THEORY":"SGP4","SEMIMAJOR_AXIS":"6823.104","CLASSIFICATION_TYPE":"U","RCS_SIZE":"LARGE","LAUNCH_DATE":"2022-07-07","MEAN_MOTION":"15.40386682","TIME_SYSTEM":"UTC","TLE_LINE2":"2 53017  53.2170 358.9642 0001758  35.8935  49.9074 15.40386682  1307","MEAN_MOTION_DDOT":"0.0000000000000","OBJECT_NAME":"STARLINK-4281","ELEMENT_SET_NO":"999","OBJECT_TYPE":"PAYLOAD","INCLINATION":"53.2170","REV_AT_EPOCH":"130","COUNTRY_CODE":"US","PERIAPSIS":"443.770","ARG_OF_PERICENTER":"35.8935","BSTAR":"-0.02855800000000","GP_ID":"213262577","EPOCH":"2022-09-22T22:00:00.999936","FILE":"3580594","ECCENTRICITY":"0.00017580","NORAD_CAT_ID":"53017","MEAN_MOTION_DOT":"-0.01075971","OBJECT_ID":"2022-076AH","RA_OF_ASC_NODE":"358.9642","APOAPSIS":"446.169","REF_FRAME":"TEME","SITE":"AFETR","TLE_LINE1":"1 53017U 22076AH  22265.91667824 -.01075971  00000-0 -28558-1 0  9994","MEAN_ANOMALY":"49.9074","CENTER_NAME":"EARTH","PERIOD":"93.483","DECAY_DATE":null},{"APOAPSIS":"448.937","REF_FRAME":"TEME","RA_OF_ASC_NODE":"358.9311","OBJECT_ID":"2022-076AJ","MEAN_MOTION_DOT":"-0.01079011","CENTER_NAME":"EARTH","MEAN_ANOMALY":"30.9573","PERIOD":"93.541","DECAY_DATE":null,"TLE_LINE1":"1 53018U 22076AJ  22265.91667824 -.01079011  00000-0 -29564-1 0  9992","SITE":"AFETR","BSTAR":"-0.02956400000000","ARG_OF_PERICENTER":"36.4317","COUNTRY_CODE":"US","PERIAPSIS":"446.618","ECCENTRICITY":"0.00016990","NORAD_CAT_ID":"53018","FILE":"3580594","EPOCH":"2022-09-22T22:00:00.999936","GP_ID":"213262890","MEAN_MOTION":"15.39436227","TIME_SYSTEM":"UTC","INCLINATION":"53.2170","REV_AT_EPOCH":"130","ELEMENT_SET_NO":"999","OBJECT_TYPE":"PAYLOAD","TLE_LINE2":"2 53018  53.2170 358.9311 0001699  36.4317  30.9573 15.39436227  1309","OBJECT_NAME":"STARLINK-4279","MEAN_MOTION_DDOT":"0.0000000000000","MEAN_ELEMENT_THEORY":"SGP4","SEMIMAJOR_AXIS":"6825.912","EPHEMERIS_TYPE":"0","RCS_SIZE":"LARGE","CLASSIFICATION_TYPE":"U","LAUNCH_DATE":"2022-07-07"},{"REF_FRAME":"TEME","APOAPSIS":"444.412","MEAN_MOTION_DOT":"-0.01119173","OBJECT_ID":"2022-076AK","RA_OF_ASC_NODE":"358.9827","PERIOD":"93.445","DECAY_DATE":null,"CENTER_NAME":"EARTH","MEAN_ANOMALY":"65.4551","SITE":"AFETR","TLE_LINE1":"1 53019U 22076AK  22265.91667824 -.01119173  00000-0 -29195-1 0  9997","BSTAR":"-0.02919500000000","PERIAPSIS":"441.850","COUNTRY_CODE":"US","ARG_OF_PERICENTER":"30.6159","FILE":"3580594","NORAD_CAT_ID":"53019","ECCENTRICITY":"0.00018780","EPOCH":"2022-09-22T22:00:00.999936","GP_ID":"213262326","TIME_SYSTEM":"UTC","MEAN_MOTION":"15.41009482","OBJECT_TYPE":"PAYLOAD","ELEMENT_SET_NO":"999","INCLINATION":"53.2169","REV_AT_EPOCH":"130","MEAN_MOTION_DDOT":"0.0000000000000","TLE_LINE2":"2 53019  53.2169 358.9827 0001878  30.6159  65.4551 15.41009482  1300","OBJECT_NAME":"STARLINK-4282","EPHEMERIS_TYPE":"0","SEMIMAJOR_AXIS":"6821.266","MEAN_ELEMENT_THEORY":"SGP4","LAUNCH_DATE":"2022-07-07","RCS_SIZE":"LARGE","CLASSIFICATION_TYPE":"U"},{"FILE":"3580594","ECCENTRICITY":"0.00017590","NORAD_CAT_ID":"53020","EPOCH":"2022-09-22T22:00:00.999936","GP_ID":"213263258","BSTAR":"-0.02903600000000","COUNTRY_CODE":"US","PERIAPSIS":"445.519","ARG_OF_PERICENTER":"35.2211","MEAN_ANOMALY":"39.7443","CENTER_NAME":"EARTH","PERIOD":"93.519","DECAY_DATE":null,"SITE":"AFETR","TLE_LINE1":"1 53020U 22076AL  22265.91667824 -.01072927  00000-0 -29036-1 0  9998","APOAPSIS":"447.920","REF_FRAME":"TEME","MEAN_MOTION_DOT":"-0.01072927","OBJECT_ID":"2022-076AL","RA_OF_ASC_NODE":"358.9432","CLASSIFICATION_TYPE":"U","RCS_SIZE":"LARGE","LAUNCH_DATE":"2022-07-07","EPHEMERIS_TYPE":"0","MEAN_ELEMENT_THEORY":"SGP4","SEMIMAJOR_AXIS":"6824.854","ELEMENT_SET_NO":"999","OBJECT_TYPE":"PAYLOAD","INCLINATION":"53.2169","REV_AT_EPOCH":"130","OBJECT_NAME":"STARLINK-4287","TLE_LINE2":"2 53020  53.2169 358.9432 0001759  35.2211  39.7443 15.39794298  1309","MEAN_MOTION_DDOT":"0.0000000000000","MEAN_MOTION":"15.39794298","TIME_SYSTEM":"UTC"},{"OBJECT_ID":"2022-076AM","MEAN_MOTION_DOT":"-0.01155120","RA_OF_ASC_NODE":"359.0020","REF_FRAME":"TEME","APOAPSIS":"442.543","SITE":"AFETR","TLE_LINE1":"1 53021U 22076AM  22265.91667824 -.01155120  00000-0 -29602-1 0  9995","PERIOD":"93.408","DECAY_DATE":null,"MEAN_ANOMALY":"67.3847","CENTER_NAME":"EARTH","PERIAPSIS":"440.073","COUNTRY_CODE":"US","ARG_OF_PERICENTER":"38.4072","BSTAR":"-0.02960200000000","EPOCH":"2022-09-22T22:00:00.999936","GP_ID":"213262169","FILE":"3580594","NORAD_CAT_ID":"53021","ECCENTRICITY":"0.00018110","TIME_SYSTEM":"UTC","MEAN_MOTION":"15.41627297","TLE_LINE2":"2 53021  53.2170 359.0020 0001811  38.4072  67.3847 15.41627297  1308","OBJECT_NAME":"STARLINK-4203","MEAN_MOTION_DDOT":"0.0000000000000","OBJECT_TYPE":"PAYLOAD","ELEMENT_SET_NO":"999","REV_AT_EPOCH":"130","INCLINATION":"53.2170","EPHEMERIS_TYPE":"0","SEMIMAJOR_AXIS":"6819.443","MEAN_ELEMENT_THEORY":"SGP4","LAUNCH_DATE":"2022-07-07","RCS_SIZE":"LARGE","CLASSIFICATION_TYPE":"U"},{"GP_ID":"213262483","EPOCH":"2022-09-22T22:00:00.999936","FILE":"3580594","NORAD_CAT_ID":"53022","ECCENTRICITY":"0.00018890","PERIAPSIS":"442.759","COUNTRY_CODE":"US","ARG_OF_PERICENTER":"33.3013","BSTAR":"-0.02888800000000","SITE":"AFETR","TLE_LINE1":"1 53022U 22076AN  22265.91667824 -.01097871  00000-0 -28888-1 0  9999","PERIOD":"93.464","DECAY_DATE":null,"CENTER_NAME":"EARTH","MEAN_ANOMALY":"57.7020","MEAN_MOTION_DOT":"-0.01097871","OBJECT_ID":"2022-076AN","RA_OF_ASC_NODE":"358.9743","REF_FRAME":"TEME","APOAPSIS":"445.336","LAUNCH_DATE":"2022-07-07","CLASSIFICATION_TYPE":"U","RCS_SIZE":"LARGE","EPHEMERIS_TYPE":"0","SEMIMAJOR_AXIS":"6822.183","MEAN_ELEMENT_THEORY":"SGP4","TLE_LINE2":"2 53022  53.2169 358.9743 0001889  33.3013  57.7020 15.40698847  1305","MEAN_MOTION_DDOT":"0.0000000000000","OBJECT_NAME":"STARLINK-4216","OBJECT_TYPE":"PAYLOAD","ELEMENT_SET_NO":"999","REV_AT_EPOCH":"130","INCLINATION":"53.2169","TIME_SYSTEM":"UTC","MEAN_MOTION":"15.40698847"},{"DECAY_DATE":null,"PERIOD":"93.376","MEAN_ANOMALY":"69.8550","CENTER_NAME":"EARTH","SITE":"AFETR","TLE_LINE1":"1 53023U 22076AP  22265.91667824 -.01183095  00000-0 -29851-1 0  9995","REF_FRAME":"TEME","APOAPSIS":"440.893","MEAN_MOTION_DOT":"-0.01183095","OBJECT_ID":"2022-076AP","RA_OF_ASC_NODE":"359.0187","FILE":"3580594","NORAD_CAT_ID":"53023","ECCENTRICITY":"0.00016860","EPOCH":"2022-09-22T22:00:00.999936","GP_ID":"213262734","BSTAR":"-0.02985100000000","PERIAPSIS":"438.594","COUNTRY_CODE":"US","ARG_OF_PERICENTER":"44.1259","OBJECT_TYPE":"PAYLOAD","ELEMENT_SET_NO":"999","REV_AT_EPOCH":"130","INCLINATION":"53.2170","MEAN_MOTION_DDOT":"0.0000000000000","TLE_LINE2":"2 53023  53.2170 359.0187 0001686  44.1259  69.8550 15.42158012  1308","OBJECT_NAME":"STARLINK-4284","TIME_SYSTEM":"UTC","MEAN_MOTION":"15.42158012","LAUNCH_DATE":"2022-07-07","CLASSIFICATION_TYPE":"U","RCS_SIZE":"LARGE","EPHEMERIS_TYPE":"0","SEMIMAJOR_AXIS":"6817.879","MEAN_ELEMENT_THEORY":"SGP4"},{"LAUNCH_DATE":"2022-07-07","RCS_SIZE":"LARGE","CLASSIFICATION_TYPE":"U","EPHEMERIS_TYPE":"0","SEMIMAJOR_AXIS":"6818.737","MEAN_ELEMENT_THEORY":"SGP4","OBJECT_TYPE":"PAYLOAD","ELEMENT_SET_NO":"999","INCLINATION":"53.2170","REV_AT_EPOCH":"130","TLE_LINE2":"2 53024  53.2170 359.0120 0001806  36.1486  74.3334 15.41866773  1303","OBJECT_NAME":"STARLINK-4289","MEAN_MOTION_DDOT":"0.0000000000000","TIME_SYSTEM":"UTC","MEAN_MOTION":"15.41866773","FILE":"3580594","NORAD_CAT_ID":"53024","ECCENTRICITY":"0.00018060","EPOCH":"2022-09-22T22:00:00.999936","GP_ID":"213263056","BSTAR":"-0.02734300000000","PERIAPSIS":"439.371","COUNTRY_CODE":"US","ARG_OF_PERICENTER":"36.1486","DECAY_DATE":null,"PERIOD":"93.393","MEAN_ANOMALY":"74.3334","CENTER_NAME":"EARTH","SITE":"AFETR","TLE_LINE1":"1 53024U 22076AQ  22265.91667824 -.01081979  00000-0 -27343-1 0  9998","REF_FRAME":"TEME","APOAPSIS":"441.833","OBJECT_ID":"2022-076AQ","MEAN_MOTION_DOT":"-0.01081979","RA_OF_ASC_NODE":"359.0120"},{"REV_AT_EPOCH":"130","INCLINATION":"53.2173","OBJECT_TYPE":"PAYLOAD","ELEMENT_SET_NO":"999","MEAN_MOTION_DDOT":"0.0000000000000","TLE_LINE2":"2 53025  53.2173 359.0298 0001987  31.9831  88.0676 15.42501879  1305","OBJECT_NAME":"STARLINK-4218","TIME_SYSTEM":"UTC","MEAN_MOTION":"15.42501879","LAUNCH_DATE":"2022-07-07","RCS_SIZE":"LARGE","CLASSIFICATION_TYPE":"U","SEMIMAJOR_AXIS":"6816.865","MEAN_ELEMENT_THEORY":"SGP4","EPHEMERIS_TYPE":"0","DECAY_DATE":null,"PERIOD":"93.355","MEAN_ANOMALY":"88.0676","CENTER_NAME":"EARTH","TLE_LINE1":"1 53025U 22076AR  22265.91667824 -.01157904  00000-0 -28817-1 0  9998","SITE":"AFETR","REF_FRAME":"TEME","APOAPSIS":"440.085","RA_OF_ASC_NODE":"359.0298","OBJECT_ID":"2022-076AR","MEAN_MOTION_DOT":"-0.01157904","NORAD_CAT_ID":"53025","ECCENTRICITY":"0.00019870","FILE":"3580594","GP_ID":"213262578","EPOCH":"2022-09-22T22:00:00.999936","BSTAR":"-0.02881700000000","ARG_OF_PERICENTER":"31.9831","PERIAPSIS":"437.376","COUNTRY_CODE":"US"},{"EPHEMERIS_TYPE":"0","SEMIMAJOR_AXIS":"6820.368","MEAN_ELEMENT_THEORY":"SGP4","LAUNCH_DATE":"2022-07-07","CLASSIFICATION_TYPE":"U","RCS_SIZE":"LARGE","TIME_SYSTEM":"UTC","MEAN_MOTION":"15.41313603","MEAN_MOTION_DDOT":"0.0000000000000","TLE_LINE2":"2 53026  53.2172 358.9922 0001915  31.4355  69.5675 15.41313603  1302","OBJECT_NAME":"STARLINK-4119","OBJECT_TYPE":"PAYLOAD","ELEMENT_SET_NO":"999","INCLINATION":"53.2172","REV_AT_EPOCH":"130","PERIAPSIS":"440.927","COUNTRY_CODE":"US","ARG_OF_PERICENTER":"31.4355","BSTAR":"-0.02923300000000","GP_ID":"213262891","EPOCH":"2022-09-22T22:00:00.999936","FILE":"3580594","NORAD_CAT_ID":"53026","ECCENTRICITY":"0.00019150","OBJECT_ID":"2022-076AS","MEAN_MOTION_DOT":"-0.01131019","RA_OF_ASC_NODE":"358.9922","REF_FRAME":"TEME","APOAPSIS":"443.540","SITE":"AFETR","TLE_LINE1":"1 53026U 22076AS  22265.91667824 -.01131019  00000-0 -29233-1 0  9991","DECAY_DATE":null,"PERIOD":"93.427","CENTER_NAME":"EARTH","MEAN_ANOMALY":"69.5675"}];
